{
  "63979": {
    "noradId": "63979",
    "tle": [
      "1 63979C 25099AD  26088.37687500  .00061584  00000+0  22315-2 0   886",
      "2 63979  43.0000  61.4517 0001367 268.6883 266.5658 15.27533741    12"
    ]
  },
  "63994": {
    "noradId": "63994",
    "tle": [
      "1 63994C 25101A   26088.30256944  .00047650  00000+0  17265-2 0   880",
      "2 63994  42.9994 247.5184 0001768 276.2612 351.0851 15.27542951    14"
    ]
  },
  "63995": {
    "noradId": "63995",
    "tle": [
      "1 63995C 25101B   26088.40187500  .00055895  00000+0  20240-2 0   880",
      "2 63995  43.0017 246.5929 0001848 258.7102 351.0440 15.27559078    19"
    ]
  },
  "63996": {
    "noradId": "63996",
    "tle": [
      "1 63996C 25101C   26088.39423611  .00056573  00000+0  20486-2 0   881",
      "2 63996  43.0013 246.5679 0001822 258.8186 351.2900 15.27557626    13"
    ]
  },
  "63997": {
    "noradId": "63997",
    "tle": [
      "1 63997C 25101D   26088.30673611  .00046963  00000+0  17016-2 0   887",
      "2 63997  42.9994 246.8675 0001490 279.8459 272.2195 15.27542471    16"
    ]
  },
  "63998": {
    "noradId": "63998",
    "tle": [
      "1 63998C 25101E   26088.36298611  .00058871  00000+0  21329-2 0   880",
      "2 63998  43.0005 247.0837 0001991 277.5518   4.8756 15.27538553    10"
    ]
  },
  "63999": {
    "noradId": "63999",
    "tle": [
      "1 63999C 25101F   26088.34284722  .00060518  00000+0  21927-2 0   882",
      "2 63999  43.0011 246.8016 0001488 272.2884  61.9887 15.27537007    15"
    ]
  },
  "64000": {
    "noradId": "64000",
    "tle": [
      "1 64000C 25101G   26088.36506944  .00059436  00000+0  21532-2 0   880",
      "2 64000  43.0020 246.7616 0001552 277.2485 143.9965 15.27541658    13"
    ]
  },
  "64001": {
    "noradId": "64001",
    "tle": [
      "1 64001C 25101H   26088.29770833  .00042280  00000+0  15320-2 0   880",
      "2 64001  42.9989 247.6666 0001598 277.2391 273.8230 15.27544021    12"
    ]
  },
  "64002": {
    "noradId": "64002",
    "tle": [
      "1 64002C 25101J   26088.33034722  .00057300  00000+0  20763-2 0   882",
      "2 64002  42.9990 247.3814 0001896 277.1384 136.0821 15.27535342    11"
    ]
  },
  "64003": {
    "noradId": "64003",
    "tle": [
      "1 64003C 25101K   26088.35326389  .00054646  00000+0  19789-2 0   884",
      "2 64003  42.9992 246.5355 0001612 255.0916 221.4419 15.27557429    19"
    ]
  },
  "64004": {
    "noradId": "64004",
    "tle": [
      "1 64004C 25101L   26088.36437500  .00064178  00000+0  23243-2 0   885",
      "2 64004  43.0020 246.9542 0002276 260.7394  78.8740 15.27548446    16"
    ]
  },
  "64005": {
    "noradId": "64005",
    "tle": [
      "1 64005C 25101M   26088.36298611  .00060296  00000+0  21829-2 0   889",
      "2 64005  43.0021 246.7375 0001561 263.7553 160.1626 15.27562863    13"
    ]
  },
  "64006": {
    "noradId": "64006",
    "tle": [
      "1 64006C 25101N   26088.40951389  .00009715  00000+0  35210-3 0   882",
      "2 64006  42.9991 246.2327 0001429 260.0623 159.1311 15.27553294    18"
    ]
  },
  "64007": {
    "noradId": "64007",
    "tle": [
      "1 64007C 25101P   26088.34423611  .00062239  00000+0  22535-2 0   883",
      "2 64007  43.0004 246.7367 0001588 262.8595 100.2907 15.27559254    19"
    ]
  },
  "64008": {
    "noradId": "64008",
    "tle": [
      "1 64008C 25101Q   26088.34284722  .00050482  00000+0  18289-2 0   880",
      "2 64008  43.0013 247.1409 0001761 276.2690 276.5034 15.27544681    16"
    ]
  },
  "64009": {
    "noradId": "64009",
    "tle": [
      "1 64009C 25101R   26088.38729167  .00055558  00000+0  20109-2 0   885",
      "2 64009  43.0002 246.4761 0001299 266.8379 340.3821 15.27573325    14"
    ]
  },
  "64010": {
    "noradId": "64010",
    "tle": [
      "1 64010C 25101S   26088.41437500  .00048575  00000+0  17582-2 0   880",
      "2 64010  43.0001 246.8381 0001405 286.3638 257.6358 15.27577219    12"
    ]
  },
  "64011": {
    "noradId": "64011",
    "tle": [
      "1 64011C 25101T   26088.31298611  .00054562  00000+0  19751-2 0   881",
      "2 64011  43.0003 247.3934 0001851 268.0966  84.7361 15.27568895    14"
    ]
  },
  "64012": {
    "noradId": "64012",
    "tle": [
      "1 64012C 25101U   26088.37756944  .00052237  00000+0  18910-2 0   889",
      "2 64012  42.9998 246.4953 0001375 261.4116 306.4700 15.27569474    17"
    ]
  },
  "64013": {
    "noradId": "64013",
    "tle": [
      "1 64013C 25101V   26088.39215278  .00057120  00000+0  20677-2 0   881",
      "2 64013  42.9990 243.5194 0001471 263.6032 148.4418 15.27568486    15"
    ]
  },
  "64014": {
    "noradId": "64014",
    "tle": [
      "1 64014C 25101W   26088.35881944  .00131250  00000+0  47553-2 0   886",
      "2 64014  42.9986 247.2483 0001549 264.3732 291.3273 15.27502752    15"
    ]
  },
  "64015": {
    "noradId": "64015",
    "tle": [
      "1 64015C 25101X   26088.41368056  .00056875  00000+0  20577-2 0   884",
      "2 64015  43.0009 246.3764 0001443 279.7264  91.6306 15.27586939    16"
    ]
  },
  "64016": {
    "noradId": "64016",
    "tle": [
      "1 64016C 25101Y   26088.35395833  .00059383  00000+0  21494-2 0   887",
      "2 64016  43.0000 246.6436 0001443 270.8951 159.8766 15.27570255    13"
    ]
  },
  "64017": {
    "noradId": "64017",
    "tle": [
      "1 64017C 25101Z   26088.36923611  .00056731  00000+0  20539-2 0   883",
      "2 64017  43.0017 246.6770 0001337 257.4904 207.9181 15.27564444    13"
    ]
  },
  "64018": {
    "noradId": "64018",
    "tle": [
      "1 64018C 25101AA  26088.41576389  .00056958  00000+0  20621-2 0   889",
      "2 64018  43.0019 246.5900 0001924 264.8009  26.0511 15.27564500    10"
    ]
  },
  "64019": {
    "noradId": "64019",
    "tle": [
      "1 64019C 25101AB  26088.39562500  .00053496  00000+0  19364-2 0   883",
      "2 64019  43.0015 246.8030 0002369 269.0386 228.4571 15.27570865    18"
    ]
  },
  "64020": {
    "noradId": "64020",
    "tle": [
      "1 64020C 25101AC  26088.35048611  .00058554  00000+0  21213-2 0   889",
      "2 64020  43.0020 247.0076 0001791 277.4256 352.7856 15.27542239    17"
    ]
  },
  "64021": {
    "noradId": "64021",
    "tle": [
      "1 64021C 25101AD  26088.36645833  .00053754  00000+0  19473-2 0   882",
      "2 64021  43.0007 246.6240 0001550 273.1457 205.2851 15.27545250    13"
    ]
  },
  "64022": {
    "noradId": "64022",
    "tle": [
      "1 64022C 25102A   26088.41576389  .00020179  00000+0  16910-2 0   887",
      "2 64022  70.0006  64.7226 0003105 274.0835 204.9195 14.98322279    12"
    ]
  },
  "64023": {
    "noradId": "64023",
    "tle": [
      "1 64023C 25102B   26088.31506944  .00021193  00000+0  17760-2 0   888",
      "2 64023  70.0004  65.0710 0003477 272.2013 294.6725 14.98320151    15"
    ]
  },
  "64024": {
    "noradId": "64024",
    "tle": [
      "1 64024C 25102C   26088.31020833  .00011972  00000+0  10034-2 0   888",
      "2 64024  70.0008  64.8818 0003097 274.3270  86.4136 14.98322955    19"
    ]
  },
  "64025": {
    "noradId": "64025",
    "tle": [
      "1 64025C 25102D   26088.40395833  .00016512  00000+0  13843-2 0   880",
      "2 64025  70.0002  64.8927 0003440 271.8249   8.4753 14.98305460    16"
    ]
  },
  "64026": {
    "noradId": "64026",
    "tle": [
      "1 64026C 25102E   26088.38104167  .00026163  00000+0  21925-2 0   889",
      "2 64026  70.0004  65.0060 0003693 273.4726 199.1236 14.98316433    14"
    ]
  },
  "64027": {
    "noradId": "64027",
    "tle": [
      "1 64027C 25102F   26088.36506944  .00032296  00000+0  27058-2 0   884",
      "2 64027  70.0007  64.8451 0002765 277.6810 288.7923 14.98326728    14"
    ]
  },
  "64028": {
    "noradId": "64028",
    "tle": [
      "1 64028C 25102G   26088.37895833  .00024924  00000+0  20887-2 0   886",
      "2 64028  70.0004  64.6304 0003345 273.5595 165.4406 14.98317385    13"
    ]
  },
  "64029": {
    "noradId": "64029",
    "tle": [
      "1 64029C 25102H   26088.41576389  .00018106  00000+0  15171-2 0   889",
      "2 64029  70.0003  64.7870 0003232 272.7405 138.7339 14.98326612    19"
    ]
  },
  "64030": {
    "noradId": "64030",
    "tle": [
      "1 64030C 25102J   26088.40743056  .00018050  00000+0  15126-2 0   885",
      "2 64030  70.0002  64.8880 0003118 275.6167  24.2928 14.98323516    15"
    ]
  },
  "64031": {
    "noradId": "64031",
    "tle": [
      "1 64031C 25102K   26088.34006944  .00036008  00000+0  30175-2 0   881",
      "2 64031  70.0004  64.9569 0003296 271.3126 115.3839 14.98314264    11"
    ]
  },
  "64032": {
    "noradId": "64032",
    "tle": [
      "1 64032C 25102L   26088.31715278  .00011507  00000+0  96441-3 0   882",
      "2 64032  70.0007  64.8377 0003247 274.7281 145.9675 14.98322704    11"
    ]
  },
  "64033": {
    "noradId": "64033",
    "tle": [
      "1 64033C 25102M   26088.32548611  .00011406  00000+0  95595-3 0   886",
      "2 64033  70.0009  64.8939 0003097 273.4657 124.6388 14.98322371    19"
    ]
  },
  "64034": {
    "noradId": "64034",
    "tle": [
      "1 64034C 25102N   26088.29909722  .00007842  00000+0  65719-3 0   881",
      "2 64034  70.0009  64.9905 0003312 273.5672 318.8279 14.98323966    19"
    ]
  },
  "64035": {
    "noradId": "64035",
    "tle": [
      "1 64035C 25102P   26088.29562500  .00011596  00000+0  97177-3 0   885",
      "2 64035  70.0006  65.0765 0003490 272.5854 121.0585 14.98325140    11"
    ]
  },
  "64036": {
    "noradId": "64036",
    "tle": [
      "1 64036C 25102Q   26088.33798611  .00023967  00000+0  20084-2 0   882",
      "2 64036  70.0004  65.0080 0003352 273.6993  55.8606 14.98320312    17"
    ]
  },
  "64037": {
    "noradId": "64037",
    "tle": [
      "1 64037C 25102R   26088.35812500  .00029842  00000+0  25010-2 0   881",
      "2 64037  70.0005  64.8813 0002912 281.8303 223.8611 14.98314442    17"
    ]
  }
}